CCSDS_OMM_VERS = 2.0
CREATION_DATE  = 
ORIGINATOR     = 

OBJECT_NAME    = 2025-310A
OBJECT_ID      = 2025-310A
CENTER_NAME    = EARTH
REF_FRAME      = TEME
TIME_SYSTEM    = UTC
MEAN_ELEMENT_THEORY = SGP/SGP4

EPOCH          = 2025-12-29T07:34:01.585632
MEAN_MOTION    = 15.11153747
ECCENTRICITY   = .01516124
INCLINATION    = 97.9657
RA_OF_ASC_NODE = 8.0673
ARG_OF_PERICENTER = 68.9370
MEAN_ANOMALY   = 292.7996

EPHEMERIS_TYPE = 0
CLASSIFICATION_TYPE = U
NORAD_CAT_ID   = 67234
ELEMENT_SET_NO = 999
REV_AT_EPOCH   = 57
BSTAR          = .1391438E-3
MEAN_MOTION_DOT = .2994E-4
MEAN_MOTION_DDOT = 0

CCSDS_OMM_VERS = 2.0
CREATION_DATE  = 
ORIGINATOR     = 

OBJECT_NAME    = SL-4 R/B
OBJECT_ID      = 2025-310B
CENTER_NAME    = EARTH
REF_FRAME      = TEME
TIME_SYSTEM    = UTC
MEAN_ELEMENT_THEORY = SGP/SGP4

EPOCH          = 2026-01-06T23:19:17.199840
MEAN_MOTION    = 15.54322026
ECCENTRICITY   = .02798039
INCLINATION    = 97.9559
RA_OF_ASC_NODE = 17.8332
ARG_OF_PERICENTER = 31.7615
MEAN_ANOMALY   = 330.0176

EPHEMERIS_TYPE = 0
CLASSIFICATION_TYPE = U
NORAD_CAT_ID   = 67235
ELEMENT_SET_NO = 999
REV_AT_EPOCH   = 192
BSTAR          = .29114417E-3
MEAN_MOTION_DOT = .123938E-2
MEAN_MOTION_DDOT = .2291578E-5

CCSDS_OMM_VERS = 2.0
CREATION_DATE  = 
ORIGINATOR     = 

OBJECT_NAME    = HULIANWANG DIGUI-130
OBJECT_ID      = 2025-311C
CENTER_NAME    = EARTH
REF_FRAME      = TEME
TIME_SYSTEM    = UTC
MEAN_ELEMENT_THEORY = SGP/SGP4

EPOCH          = 2026-01-07T07:17:33.454752
MEAN_MOTION    = 13.90215926
ECCENTRICITY   = .00077937
INCLINATION    = 50.0081
RA_OF_ASC_NODE = 346.6633
ARG_OF_PERICENTER = 296.2312
MEAN_ANOMALY   = 63.7786

EPHEMERIS_TYPE = 0
CLASSIFICATION_TYPE = U
NORAD_CAT_ID   = 67238
ELEMENT_SET_NO = 999
REV_AT_EPOCH   = 172
BSTAR          = .15598472E-4
MEAN_MOTION_DOT = -.127E-5
MEAN_MOTION_DDOT = 0

CCSDS_OMM_VERS = 2.0
CREATION_DATE  = 
ORIGINATOR     = 

OBJECT_NAME    = HULIANWANG DIGUI-131
OBJECT_ID      = 2025-311D
CENTER_NAME    = EARTH
REF_FRAME      = TEME
TIME_SYSTEM    = UTC
MEAN_ELEMENT_THEORY = SGP/SGP4

EPOCH          = 2026-01-07T07:21:55.454112
MEAN_MOTION    = 13.90203204
ECCENTRICITY   = .00093669
INCLINATION    = 50.0083
RA_OF_ASC_NODE = 346.6776
ARG_OF_PERICENTER = 304.0104
MEAN_ANOMALY   = 55.9904

EPHEMERIS_TYPE = 0
CLASSIFICATION_TYPE = U
NORAD_CAT_ID   = 67239
ELEMENT_SET_NO = 999
REV_AT_EPOCH   = 172
BSTAR          = .15619029E-4
MEAN_MOTION_DOT = -.127E-5
MEAN_MOTION_DDOT = 0

CCSDS_OMM_VERS = 2.0
CREATION_DATE  = 
ORIGINATOR     = 

OBJECT_NAME    = HULIANWANG DIGUI-135
OBJECT_ID      = 2025-311H
CENTER_NAME    = EARTH
REF_FRAME      = TEME
TIME_SYSTEM    = UTC
MEAN_ELEMENT_THEORY = SGP/SGP4

EPOCH          = 2026-01-06T22:37:13.564704
MEAN_MOTION    = 13.90182348
ECCENTRICITY   = .00080047
INCLINATION    = 50.0053
RA_OF_ASC_NODE = 348.0788
ARG_OF_PERICENTER = 305.4177
MEAN_ANOMALY   = 54.5973

EPHEMERIS_TYPE = 0
CLASSIFICATION_TYPE = U
NORAD_CAT_ID   = 67243
ELEMENT_SET_NO = 999
REV_AT_EPOCH   = 167
BSTAR          = .14268992E-4
MEAN_MOTION_DOT = -.128E-5
MEAN_MOTION_DDOT = 0

CCSDS_OMM_VERS = 2.0
CREATION_DATE  = 
ORIGINATOR     = 

OBJECT_NAME    = CZ-8A R/B
OBJECT_ID      = 2025-311K
CENTER_NAME    = EARTH
REF_FRAME      = TEME
TIME_SYSTEM    = UTC
MEAN_ELEMENT_THEORY = SGP/SGP4

EPOCH          = 2026-01-07T04:33:05.652864
MEAN_MOTION    = 14.12608596
ECCENTRICITY   = .00889704
INCLINATION    = 50.0057
RA_OF_ASC_NODE = 345.4021
ARG_OF_PERICENTER = 124.5633
MEAN_ANOMALY   = 236.3711

EPHEMERIS_TYPE = 0
CLASSIFICATION_TYPE = U
NORAD_CAT_ID   = 67245
ELEMENT_SET_NO = 999
REV_AT_EPOCH   = 173
BSTAR          = .5989411E-4
MEAN_MOTION_DOT = -.4E-6
MEAN_MOTION_DDOT = 0

CCSDS_OMM_VERS = 2.0
CREATION_DATE  = 
ORIGINATOR     = 

OBJECT_NAME    = FENGYUN 4C
OBJECT_ID      = 2025-312A
CENTER_NAME    = EARTH
REF_FRAME      = TEME
TIME_SYSTEM    = UTC
MEAN_ELEMENT_THEORY = SGP/SGP4

EPOCH          = 2026-01-07T16:41:54.437280
MEAN_MOTION    = 1.00273673
ECCENTRICITY   = .0003087
INCLINATION    = 0.0907
RA_OF_ASC_NODE = 248.6790
ARG_OF_PERICENTER = 53.5073
MEAN_ANOMALY   = 188.5714

EPHEMERIS_TYPE = 0
CLASSIFICATION_TYPE = U
NORAD_CAT_ID   = 67246
ELEMENT_SET_NO = 999
REV_AT_EPOCH   = 17
BSTAR          = 0
MEAN_MOTION_DOT = -.32E-5
MEAN_MOTION_DDOT = 0

CCSDS_OMM_VERS = 2.0
CREATION_DATE  = 
ORIGINATOR     = 

OBJECT_NAME    = CZ-3B R/B
OBJECT_ID      = 2025-312B
CENTER_NAME    = EARTH
REF_FRAME      = TEME
TIME_SYSTEM    = UTC
MEAN_ELEMENT_THEORY = SGP/SGP4

EPOCH          = 2026-01-07T03:08:04.064640
MEAN_MOTION    = 2.41285846
ECCENTRICITY   = .7225973
INCLINATION    = 28.4267
RA_OF_ASC_NODE = 329.8386
ARG_OF_PERICENTER = 186.2660
MEAN_ANOMALY   = 153.6511

EPHEMERIS_TYPE = 0
CLASSIFICATION_TYPE = U
NORAD_CAT_ID   = 67247
ELEMENT_SET_NO = 999
REV_AT_EPOCH   = 27
BSTAR          = .50616E-3
MEAN_MOTION_DOT = .14787E-2
MEAN_MOTION_DDOT = .11624E-5

CCSDS_OMM_VERS = 2.0
CREATION_DATE  = 
ORIGINATOR     = 

OBJECT_NAME    = TIANHUI 7
OBJECT_ID      = 2025-314A
CENTER_NAME    = EARTH
REF_FRAME      = TEME
TIME_SYSTEM    = UTC
MEAN_ELEMENT_THEORY = SGP/SGP4

EPOCH          = 2026-01-07T13:11:21.026688
MEAN_MOTION    = 15.25369836
ECCENTRICITY   = .0001335
INCLINATION    = 97.4224
RA_OF_ASC_NODE = 84.6987
ARG_OF_PERICENTER = 105.6717
MEAN_ANOMALY   = 254.4669

EPHEMERIS_TYPE = 0
CLASSIFICATION_TYPE = U
NORAD_CAT_ID   = 67300
ELEMENT_SET_NO = 999
REV_AT_EPOCH   = 129
BSTAR          = .92951E-4
MEAN_MOTION_DOT = .2273E-4
MEAN_MOTION_DDOT = 0

CCSDS_OMM_VERS = 2.0
CREATION_DATE  = 
ORIGINATOR     = 

OBJECT_NAME    = CZ-4B R/B
OBJECT_ID      = 2025-314B
CENTER_NAME    = EARTH
REF_FRAME      = TEME
TIME_SYSTEM    = UTC
MEAN_ELEMENT_THEORY = SGP/SGP4

EPOCH          = 2026-01-07T12:30:26.356896
MEAN_MOTION    = 15.67809367
ECCENTRICITY   = .0144751
INCLINATION    = 97.3678
RA_OF_ASC_NODE = 85.1642
ARG_OF_PERICENTER = 346.7305
MEAN_ANOMALY   = 13.0164

EPHEMERIS_TYPE = 0
CLASSIFICATION_TYPE = U
NORAD_CAT_ID   = 67301
ELEMENT_SET_NO = 999
REV_AT_EPOCH   = 127
BSTAR          = .36887E-3
MEAN_MOTION_DOT = .72855E-3
MEAN_MOTION_DDOT = .36613E-5

CCSDS_OMM_VERS = 2.0
CREATION_DATE  = 
ORIGINATOR     = 

OBJECT_NAME    = 2025-315A
OBJECT_ID      = 2025-315A
CENTER_NAME    = EARTH
REF_FRAME      = TEME
TIME_SYSTEM    = UTC
MEAN_ELEMENT_THEORY = SGP/SGP4

EPOCH          = 2025-12-31T14:33:49.080384
MEAN_MOTION    = 2.27864601
ECCENTRICITY   = .72957684
INCLINATION    = 19.4970
RA_OF_ASC_NODE = 100.4602
ARG_OF_PERICENTER = 180.0375
MEAN_ANOMALY   = 168.0127

EPHEMERIS_TYPE = 0
CLASSIFICATION_TYPE = U
NORAD_CAT_ID   = 67302
ELEMENT_SET_NO = 999
REV_AT_EPOCH   = 2
BSTAR          = .11928835E-2
MEAN_MOTION_DOT = .8137E-4
MEAN_MOTION_DDOT = 0

CCSDS_OMM_VERS = 2.0
CREATION_DATE  = 
ORIGINATOR     = 

OBJECT_NAME    = CZ-7A R/B
OBJECT_ID      = 2025-315B
CENTER_NAME    = EARTH
REF_FRAME      = TEME
TIME_SYSTEM    = UTC
MEAN_ELEMENT_THEORY = SGP/SGP4

EPOCH          = 2025-12-31T04:18:04.779936
MEAN_MOTION    = 2.38363488
ECCENTRICITY   = .72340832
INCLINATION    = 19.7725
RA_OF_ASC_NODE = 100.7388
ARG_OF_PERICENTER = 178.7114
MEAN_ANOMALY   = 185.5568

EPHEMERIS_TYPE = 0
CLASSIFICATION_TYPE = U
NORAD_CAT_ID   = 67303
ELEMENT_SET_NO = 999
REV_AT_EPOCH   = 2
BSTAR          = .12200941E-2
MEAN_MOTION_DOT = .41123E-3
MEAN_MOTION_DDOT = .76302E-6

