2025-310A               
1 67234U 25310A   25363.31529613  .00002994  00000+0  13914-3 0  9996
2 67234  97.9657   8.0673 0151612  68.9370 292.7996 15.11153747   571
SL-4 R/B                
1 67235U 25310B   26006.97172685  .00123938  22916-5  29114-3 0  9994
2 67235  97.9559  17.8332 0279803  31.7615 330.0176 15.54322026  1927
HULIANWANG DIGUI-130    
1 67238U 25311C   26007.30385943 -.00000127  00000+0  15598-4 0  9990
2 67238  50.0081 346.6633 0007793 296.2312  63.7786 13.90215926  1729
HULIANWANG DIGUI-131    
1 67239U 25311D   26007.30689183 -.00000127  00000+0  15619-4 0  9998
2 67239  50.0083 346.6776 0009366 304.0104  55.9904 13.90203204  1726
HULIANWANG DIGUI-135    
1 67243U 25311H   26006.94251811 -.00000128  00000+0  14269-4 0  9996
2 67243  50.0053 348.0788 0008004 305.4177  54.5973 13.90182348  1670
CZ-8A R/B               
1 67245U 25311K   26007.18964876 -.00000040  00000+0  59894-4 0  9993
2 67245  50.0057 345.4021 0088970 124.5633 236.3711 14.12608596  1734
FENGYUN 4C              
1 67246U 25312A   26007.69576895 -.00000320  00000+0  00000+0 0  9992
2 67246   0.0907 248.6790 0003087  53.5073 188.5714  1.00273673   171
CZ-3B R/B               
1 67247U 25312B   26007.13060260  .00147870  11624-5  50616-3 0  9999
2 67247  28.4267 329.8386 7225973 186.2660 153.6511  2.41285846   271
TIANHUI 7               
1 67300U 25314A   26007.54954892  .00002273  00000+0  92951-4 0  9995
2 67300  97.4224  84.6987 0001335 105.6717 254.4669 15.25369836  1293
CZ-4B R/B               
1 67301U 25314B   26007.52113839  .00072855  36613-5  36887-3 0  9995
2 67301  97.3678  85.1642 0144751 346.7305  13.0164 15.67809367  1272
2025-315A               
1 67302U 25315A   25365.60681806  .00008137  00000+0  11929-2 0  9992
2 67302  19.4970 100.4602 7295768 180.0375 168.0127  2.27864601    24
CZ-7A R/B               
1 67303U 25315B   25365.17922199  .00041123  76302-6  12201-2 0  9999
2 67303  19.7725 100.7388 7234083 178.7114 185.5568  2.38363488    20
